[{"OBJECT_NAME":"STARLINK-1801","OBJECT_ID":"2020-073AH","EPOCH":"2026-03-10T00:00:02.999808","MEAN_MOTION":15.71605578,"ECCENTRICITY":0.00058448,"INCLINATION":53.0451,"RA_OF_ASC_NODE":196.4487,"ARG_OF_PERICENTER":213.6688,"MEAN_ANOMALY":260.6117,"EPHEMERIS_TYPE":0,"CLASSIFICATION_TYPE":"U","NORAD_CAT_ID":46701,"ELEMENT_SET_NO":999,"REV_AT_EPOCH":590,"BSTAR":4.5163381e-5,"MEAN_MOTION_DOT":5.32e-5,"MEAN_MOTION_DDOT":0},{"OBJECT_NAME":"STARLINK-11319 [DTC]","OBJECT_ID":"2024-175J","EPOCH":"2026-03-09T04:32:00.305088","MEAN_MOTION":15.6970191,"ECCENTRICITY":8.194e-5,"INCLINATION":53.1591,"RA_OF_ASC_NODE":59.0405,"ARG_OF_PERICENTER":78.1674,"MEAN_ANOMALY":281.9436,"EPHEMERIS_TYPE":0,"CLASSIFICATION_TYPE":"U","NORAD_CAT_ID":61251,"ELEMENT_SET_NO":999,"REV_AT_EPOCH":8328,"BSTAR":1.855437e-5,"MEAN_MOTION_DOT":1.659e-5,"MEAN_MOTION_DDOT":0}]
